format  = 'OEF1.1'       ! file format
rectype = 'ML'           ! record type (1L/ML)
refsys  = ECLM J2000     ! default reference system
END_OF_HEADER
2000SG344
! Equinoctial elements: a, e*sin(LP), e*cos(LP), tan(i/2)*sin(LN), tan(i/2)*cos(LN), mean long.
 EQU   9.77484468191726E-01  0.063935538992927 -0.019721675736496 -0.000207020463202 -0.000931826547102 322.9627738211549
 MJD     52470.00000000 TDT
 MAG  24.788  0.150
! RMS    7.60096E-07   3.61151E-06   1.74471E-06   3.65412E-08   7.14805E-08   1.30234E-03
! EIG   3.49335E-09   7.63959E-09   1.23937E-08   4.38070E-08   2.21485E-07   2.30928E-05
! WEA  -0.03289   0.15638  -0.07498  -0.00058  -0.00278   0.98429
 COV   5.777465790894841E-13 -2.741000833077142E-12  1.321438858953022E-12
 COV   1.013703054467348E-14  4.841068449629045E-14 -9.890457464907136E-10
 COV   1.304298771816989E-11 -6.242818214427265E-12 -4.868160002826404E-14
 COV  -2.324444513978848E-13  4.702987719782856E-09  3.044029213380424E-12
 COV   2.279036285801307E-14  1.085581645044861E-13 -2.255014316415545E-09
 COV   1.335259617301252E-15  1.807526514808148E-15 -1.750820911971409E-11
 COV   5.109464723399550E-15 -8.362102392472051E-11  1.696079386182580E-06
 NOR   4.161008269805034E+16 -3.666715819791338E+16  2.068396445684303E+15
 NOR   4.575420728673685E+14 -1.486430958720581E+15  1.286186538587201E+14
 NOR   4.499194199574079E+16 -4.695007624504766E+15  1.659714799567269E+15
 NOR  -8.984052506310804E+14 -1.524076207721676E+14  7.975570439410947E+14
 NOR  -7.998196265832287E+14  8.834636165892057E+14  1.532043688277015E+13
 NOR   7.189246031333006E+15 -7.873144986462372E+15 -5.712694045734438E+12
 NOR   9.840150881675180E+15  3.202835088424603E+12  5.180756976245207E+11
